{
  "type": "FeatureCollection",
  "features": [
    {
      "type": "Feature",
      "properties": {
        "norad_id": 36557,
        "name": "COSMOS 2251 DEB",
        "group": "cosmos-2251-debris",
        "lat": -9.392032386683633,
        "lon": 142.14077665678786,
        "alt_km": 633.0042544272119,
        "timestamp": "2025-12-03T06:58:43.639464+00:00",
        "meta_object_name": "COSMOS 2251 DEB",
        "meta_object_id": "1993-036BDT",
        "meta_epoch": "2025-11-29T20:08:28.959648",
        "meta_mean_motion": 14.77361907,
        "meta_eccentricity": 0.00205231,
        "meta_inclination": 73.9794,
        "meta_ra_of_asc_node": 151.6562,
        "meta_arg_of_pericenter": 302.0455,
        "meta_mean_anomaly": 57.8725,
        "meta_ephemeris_type": 0,
        "meta_classification_type": "U",
        "meta_norad_cat_id": 36557,
        "meta_element_set_no": 999,
        "meta_rev_at_epoch": 33706,
        "meta_bstar": 0.0024129009,
        "meta_mean_motion_dot": 0.00017224,
        "meta_mean_motion_ddot": 0,
        "tle_line1": "1 36557U 93036BDT 25333.83922407  .00017224  00000+0  24129-2 0  9993",
        "tle_line2": "2 36557  73.9794 151.6562 0020523 302.0455  57.8725 14.77361907337062"
      },
      "geometry": {
        "type": "Point",
        "coordinates": [
          142.14077665678786,
          -9.392032386683633
        ]
      }
    },
    {
      "type": "Feature",
      "properties": {
        "norad_id": 36558,
        "name": "COSMOS 2251 DEB",
        "group": "cosmos-2251-debris",
        "lat": -22.224419150502936,
        "lon": 165.7192809573863,
        "alt_km": 711.4491923945398,
        "timestamp": "2025-12-03T06:58:43.639474+00:00",
        "meta_object_name": "COSMOS 2251 DEB",
        "meta_object_id": "1993-036BDU",
        "meta_epoch": "2025-11-30T14:44:20.411232",
        "meta_mean_motion": 14.55224096,
        "meta_eccentricity": 0.0013208,
        "meta_inclination": 74.0432,
        "meta_ra_of_asc_node": 177.4971,
        "meta_arg_of_pericenter": 265.9101,
        "meta_mean_anomaly": 94.0552,
        "meta_ephemeris_type": 0,
        "meta_classification_type": "U",
        "meta_norad_cat_id": 36558,
        "meta_element_set_no": 999,
        "meta_rev_at_epoch": 85092,
        "meta_bstar": 0.00073526,
        "meta_mean_motion_dot": 3.158e-05,
        "meta_mean_motion_ddot": 0,
        "tle_line1": "1 36558U 93036BDU 25334.61412513  .00003158  00000+0  73526-3 0  9990",
        "tle_line2": "2 36558  74.0432 177.4971 0013208 265.9101  94.0552 14.55224096850920"
      },
      "geometry": {
        "type": "Point",
        "coordinates": [
          165.7192809573863,
          -22.224419150502936
        ]
      }
    },
    {
      "type": "Feature",
      "properties": {
        "norad_id": 36559,
        "name": "COSMOS 2251 DEB",
        "group": "cosmos-2251-debris",
        "lat": 52.27101197745118,
        "lon": 47.52995533268184,
        "alt_km": 716.9657460004973,
        "timestamp": "2025-12-03T06:58:43.639484+00:00",
        "meta_object_name": "COSMOS 2251 DEB",
        "meta_object_id": "1993-036BDV",
        "meta_epoch": "2025-12-02T03:11:21.358176",
        "meta_mean_motion": 13.95051105,
        "meta_eccentricity": 0.0260429,
        "meta_inclination": 74.1296,
        "meta_ra_of_asc_node": 27.9346,
        "meta_arg_of_pericenter": 63.9976,
        "meta_mean_anomaly": 298.7727,
        "meta_ephemeris_type": 0,
        "meta_classification_type": "U",
        "meta_norad_cat_id": 36559,
        "meta_element_set_no": 999,
        "meta_rev_at_epoch": 80946,
        "meta_bstar": 0.0030993208,
        "meta_mean_motion_dot": 5.524e-05,
        "meta_mean_motion_ddot": 0,
        "tle_line1": "1 36559U 93036BDV 25336.13288609  .00005524  00000+0  30993-2 0  9996",
        "tle_line2": "2 36559  74.1296  27.9346 0260429  63.9976 298.7727 13.95051105809462"
      },
      "geometry": {
        "type": "Point",
        "coordinates": [
          47.52995533268184,
          52.27101197745118
        ]
      }
    },
    {
      "type": "Feature",
      "properties": {
        "norad_id": 36614,
        "name": "COSMOS 2251 DEB",
        "group": "cosmos-2251-debris",
        "lat": -7.712438744489267,
        "lon": 14.861179630092723,
        "alt_km": 693.3630543050404,
        "timestamp": "2025-12-03T06:58:43.639495+00:00",
        "meta_object_name": "COSMOS 2251 DEB",
        "meta_object_id": "1993-036BEC",
        "meta_epoch": "2025-11-29T08:23:05.068608",
        "meta_mean_motion": 14.60020605,
        "meta_eccentricity": 0.00167217,
        "meta_inclination": 74.0224,
        "meta_ra_of_asc_node": 200.1619,
        "meta_arg_of_pericenter": 270.7966,
        "meta_mean_anomaly": 89.1284,
        "meta_ephemeris_type": 0,
        "meta_classification_type": "U",
        "meta_norad_cat_id": 36614,
        "meta_element_set_no": 999,
        "meta_rev_at_epoch": 65417,
        "meta_bstar": 0.0010676228,
        "meta_mean_motion_dot": 5.109e-05,
        "meta_mean_motion_ddot": 0,
        "tle_line1": "1 36614U 93036BEC 25333.34936422  .00005109  00000+0  10676-2 0  9996",
        "tle_line2": "2 36614  74.0224 200.1619 0016721 270.7966  89.1284 14.60020605654173"
      },
      "geometry": {
        "type": "Point",
        "coordinates": [
          14.861179630092723,
          -7.712438744489267
        ]
      }
    },
    {
      "type": "Feature",
      "properties": {
        "norad_id": 36622,
        "name": "COSMOS 2251 DEB",
        "group": "cosmos-2251-debris",
        "lat": 65.39636644600996,
        "lon": -157.23502895965703,
        "alt_km": 665.7344508436836,
        "timestamp": "2025-12-03T06:58:43.639505+00:00",
        "meta_object_name": "COSMOS 2251 DEB",
        "meta_object_id": "1993-036BEL",
        "meta_epoch": "2025-12-02T20:53:53.024640",
        "meta_mean_motion": 14.76056615,
        "meta_eccentricity": 0.0068654,
        "meta_inclination": 74.0123,
        "meta_ra_of_asc_node": 164.8241,
        "meta_arg_of_pericenter": 302.182,
        "meta_mean_anomaly": 57.2707,
        "meta_ephemeris_type": 0,
        "meta_classification_type": "U",
        "meta_norad_cat_id": 36622,
        "meta_element_set_no": 999,
        "meta_rev_at_epoch": 66604,
        "meta_bstar": 0.00076278,
        "meta_mean_motion_dot": 5.434e-05,
        "meta_mean_motion_ddot": 0,
        "tle_line1": "1 36622U 93036BEL 25336.87075260  .00005434  00000+0  76278-3 0  9992",
        "tle_line2": "2 36622  74.0123 164.8241 0068654 302.1820  57.2707 14.76056615666040"
      },
      "geometry": {
        "type": "Point",
        "coordinates": [
          -157.23502895965703,
          65.39636644600996
        ]
      }
    },
    {
      "type": "Feature",
      "properties": {
        "norad_id": 36632,
        "name": "COSMOS 2251 DEB",
        "group": "cosmos-2251-debris",
        "lat": -73.58851741975583,
        "lon": -126.97283517866005,
        "alt_km": 774.0291090989504,
        "timestamp": "2025-12-03T06:58:43.639515+00:00",
        "meta_object_name": "COSMOS 2251 DEB",
        "meta_object_id": "1993-036BEW",
        "meta_epoch": "2025-12-02T14:44:27.820896",
        "meta_mean_motion": 14.43079898,
        "meta_eccentricity": 0.00315122,
        "meta_inclination": 74.0016,
        "meta_ra_of_asc_node": 311.214,
        "meta_arg_of_pericenter": 61.7706,
        "meta_mean_anomaly": 298.6626,
        "meta_ephemeris_type": 0,
        "meta_classification_type": "U",
        "meta_norad_cat_id": 36632,
        "meta_element_set_no": 999,
        "meta_rev_at_epoch": 65069,
        "meta_bstar": 0.0010615143,
        "meta_mean_motion_dot": 3.557e-05,
        "meta_mean_motion_ddot": 0,
        "tle_line1": "1 36632U 93036BEW 25336.61421089  .00003557  00000+0  10615-2 0  9995",
        "tle_line2": "2 36632  74.0016 311.2140 0031512  61.7706 298.6626 14.43079898650699"
      },
      "geometry": {
        "type": "Point",
        "coordinates": [
          -126.97283517866005,
          -73.58851741975583
        ]
      }
    },
    {
      "type": "Feature",
      "properties": {
        "norad_id": 37084,
        "name": "COSMOS 2251 DEB",
        "group": "cosmos-2251-debris",
        "lat": 62.58688707819844,
        "lon": -32.83063220419845,
        "alt_km": 617.4497317579726,
        "timestamp": "2025-12-03T06:58:43.639525+00:00",
        "meta_object_name": "COSMOS 2251 DEB",
        "meta_object_id": "1993-036BFE",
        "meta_epoch": "2025-12-01T06:28:31.045728",
        "meta_mean_motion": 15.00732489,
        "meta_eccentricity": 0.0098181,
        "meta_inclination": 74.0271,
        "meta_ra_of_asc_node": 184.8055,
        "meta_arg_of_pericenter": 268.0487,
        "meta_mean_anomaly": 90.9454,
        "meta_ephemeris_type": 0,
        "meta_classification_type": "U",
        "meta_norad_cat_id": 37084,
        "meta_element_set_no": 999,
        "meta_rev_at_epoch": 66095,
        "meta_bstar": 0.00060454,
        "meta_mean_motion_dot": 8.458e-05,
        "meta_mean_motion_ddot": 0,
        "tle_line1": "1 37084U 93036BFE 25335.26980377  .00008458  00000+0  60454-3 0  9999",
        "tle_line2": "2 37084  74.0271 184.8055 0098181 268.0487  90.9454 15.00732489660954"
      },
      "geometry": {
        "type": "Point",
        "coordinates": [
          -32.83063220419845,
          62.58688707819844
        ]
      }
    }
  ]
}